0 SL-12 R/B(2)
1 14394U 83100F   13279.18205893 -.00000265  00000-0  10000-3 0  3432
2 14394 014.2407 349.3373 0019115 041.1141 319.0446 01.01054542110160
0 SL-12 R/B(2)
1 14394U 83100F   13282.15063082 -.00000290  00000-0  10000-3 0  3444
2 14394 014.2402 349.3066 0019136 041.1019 319.0509 01.01053900110191
0 SL-12 R/B(2)
1 14394U 83100F   13285.11923095 -.00000303  00000-0  10000-3 0  3458
2 14394 014.2398 349.2757 0019230 041.0135 319.1342 01.01053021110228
0 SL-12 R/B(2)
1 14394U 83100F   13290.06694021 -.00000289  00000-0  10000-3 0  3466
2 14394 014.2389 349.2243 0019323 041.2545 318.8778 01.01051214110274
0 SL-12 R/B(2)
1 14394U 83100F   13293.03562259 -.00000257  00000-0  10000-3 0  3479
2 14394 014.2388 349.1922 0019296 040.0390 320.0857 01.01050042110305
